NORAD_CAT_ID,OBJECT_NAME,OBJECT_TYPE,EPOCH,MEAN_MOTION,ECCENTRICITY,INCLINATION,RA_OF_ASC_NODE,ARG_OF_PERICENTER,MEAN_ANOMALY,BSTAR,MEAN_MOTION_DOT,MEAN_MOTION_DDOT,TLE_LINE0,TLE_LINE1,TLE_LINE2,SEMIMAJOR_AXIS,PERIOD,APOGEE,PERIGEE,DECAYED
49132.0,STARLINK-3090,PAYLOAD,2023-03-16 11:17:56,14.983423,0.0001868,70.0019,160.7675,252.796,107.2995,-0.00028882,-3.538e-05,0.0,0 STARLINK-3090,1 49132U 21082C   23075.47079732 -.00003538  00000-0 -28882-3 0  9990,2 49132  70.0019 160.7675 0001868 252.7960 107.2995 14.98342300 82821,6950.155,96.106,573.318,570.722,0.0
49132.0,STARLINK-3090,PAYLOAD,2023-03-17 06:31:34,14.98324164,0.0002799,70.0006,158.7471,264.282,95.802,-0.00018324,-2.278e-05,0.0,0 STARLINK-3090,1 49132U 21082C   23076.27192994 -.00002278  00000-0 -18324-3 0  9995,2 49132  70.0006 158.7471 0002799 264.2820  95.8020 14.98324164 82947,6950.211,96.107,574.021,570.131,0.0
49132.0,STARLINK-3090,PAYLOAD,2023-03-17 11:19:59,14.98320897,0.0002817,70.0006,158.2421,266.0151,94.0686,-0.00020455,-2.532e-05,0.0,0 STARLINK-3090,1 49132U 21082C   23076.47221353 -.00002532  00000-0 -20455-3 0  9990,2 49132  70.0006 158.2421 0002817 266.0151  94.0686 14.98320897 82976,6950.221,96.108,574.044,570.128,0.0
49132.0,STARLINK-3090,PAYLOAD,2023-03-18 12:58:07,14.98331851,0.0003094,69.9996,155.547,267.2006,92.8799,0.00023294,2.688e-05,0.0,0 STARLINK-3090,1 49132U 21082C   23077.54036045  .00002688  00000-0  23294-3 0  9995,2 49132  69.9996 155.5470 0003094 267.2006  92.8799 14.98331851 83137,6950.187,96.107,574.203,569.902,0.0
49132.0,STARLINK-3090,PAYLOAD,2023-03-18 14:34:15,14.98333223,0.0003054,69.9998,155.3789,267.5427,92.5382,0.00024808,2.869e-05,0.0,0 STARLINK-3090,1 49132U 21082C   23077.60711950  .00002869  00000-0  24808-3 0  9990,2 49132  69.9998 155.3789 0003054 267.5427  92.5382 14.98333223 83147,6950.183,96.107,574.171,569.925,0.0
49132.0,STARLINK-3090,PAYLOAD,2023-03-19 04:59:28,14.98326403,0.0003153,69.9997,153.8638,266.1782,93.9017,0.00026153,3.029e-05,0.0,0 STARLINK-3090,1 49132U 21082C   23078.20796460  .00003029  00000-0  26153-3 0  9990,2 49132  69.9997 153.8638 0003153 266.1782  93.9017 14.98326403 83233,6950.204,96.107,574.26,569.878,0.0
49132.0,STARLINK-3090,PAYLOAD,2023-03-19 13:00:08,14.98331485,0.0003081,69.9997,153.0221,265.2875,94.7932,0.0002853,3.313e-05,0.0,0 STARLINK-3090,1 49132U 21082C   23078.54176083  .00003313  00000-0  28530-3 0  9997,2 49132  69.9997 153.0221 0003081 265.2875  94.7932 14.98331485 83282,6950.188,96.107,574.195,569.912,0.0
49132.0,STARLINK-3090,PAYLOAD,2023-03-19 14:36:16,14.98332621,0.0003053,69.9998,152.8538,265.1438,94.9373,0.00029252,3.399e-05,0.0,0 STARLINK-3090,1 49132U 21082C   23078.60851991  .00003399  00000-0  29252-3 0  9998,2 49132  69.9998 152.8538 0003053 265.1438  94.9373 14.98332621 83299,6950.185,96.107,574.172,569.928,0.0
49132.0,STARLINK-3090,PAYLOAD,2023-03-20 06:37:36,14.98337594,0.000304,69.9992,151.1696,264.589,95.4922,-7.0644e-06,-1.77e-06,0.0,0 STARLINK-3090,1 49132U 21082C   23079.27612147 -.00000177  00000-0 -70644-5 0  9996,2 49132  69.9992 151.1696 0003040 264.5890  95.4922 14.98337594 83392,6950.169,96.107,574.147,569.922,0.0
49132.0,STARLINK-3090,PAYLOAD,2023-03-20 13:02:09,14.98336852,0.0003033,69.9993,150.4964,264.2566,95.8247,-1.0803e-05,-2.22e-06,0.0,0 STARLINK-3090,1 49132U 21082C   23079.54316034 -.00000222  00000-0 -10803-4 0  9993,2 49132  69.9993 150.4964 0003033 264.2566  95.8247 14.98336852 83437,6950.172,96.107,574.145,569.929,0.0
49132.0,STARLINK-3090,PAYLOAD,2023-03-20 14:38:16,14.98338539,0.0003054,69.9995,150.328,264.6693,95.4118,-8.7061e-06,-1.97e-06,0.0,0 STARLINK-3090,1 49132U 21082C   23079.60991878 -.00000197  00000-0 -87061-5 0  9997,2 49132  69.9995 150.3280 0003054 264.6693  95.4118 14.98338539 83445,6950.166,96.106,574.154,569.909,0.0
49132.0,STARLINK-3090,PAYLOAD,2023-03-21 08:15:46,14.98331107,0.0002954,69.9999,148.4778,269.6733,90.4088,-4.4347e-05,-6.22e-06,0.0,0 STARLINK-3090,1 49132U 21082C   23080.34428299 -.00000622  00000-0 -44347-4 0  9994,2 49132  69.9999 148.4778 0002954 269.6733  90.4088 14.98331107 83554,6950.189,96.107,574.108,570.001,0.0
49132.0,STARLINK-3090,PAYLOAD,2023-03-21 13:04:10,14.98334,0.0002946,69.9999,147.973,270.0867,89.9955,-5.4623e-05,-7.45e-06,0.0,0 STARLINK-3090,1 49132U 21082C   23080.54456098 -.00000745  00000-0 -54623-4 0  9998,2 49132  69.9999 147.9730 0002946 270.0867  89.9955 14.98334000 83585,6950.181,96.107,574.093,569.998,0.0
49132.0,STARLINK-3090,PAYLOAD,2023-03-22 05:05:31,14.98307808,0.000295,69.9999,146.2912,263.3173,96.765,0.0003314,3.861e-05,0.0,0 STARLINK-3090,1 49132U 21082C   23081.21216579  .00003861  00000-0  33140-3 0  9991,2 49132  69.9999 146.2912 0002950 263.3173  96.7650 14.98307808 83684,6950.262,96.108,574.177,570.076,0.0
49132.0,STARLINK-3090,PAYLOAD,2023-03-22 13:06:10,14.98331576,0.0002779,70.0001,145.4499,257.4408,102.644,4.3758e-05,4.29e-06,0.0,0 STARLINK-3090,1 49132U 21082C   23081.54595796  .00000429  00000-0  43758-4 0  9992,2 49132  70.0001 145.4499 0002779 257.4408 102.6440 14.98331576 83735,6950.188,96.107,573.984,570.122,0.0
49132.0,STARLINK-3090,PAYLOAD,2023-03-22 14:42:18,14.98332255,0.0002788,70.0001,145.2816,258.803,101.2816,4.8876e-05,4.9e-06,0.0,0 STARLINK-3090,1 49132U 21082C   23081.61271741  .00000490  00000-0  48876-4 0  9995,2 49132  70.0001 145.2816 0002788 258.8030 101.2816 14.98332255 83740,6950.186,96.107,573.989,570.113,0.0
49132.0,STARLINK-3090,PAYLOAD,2023-03-23 13:08:11,14.98333666,0.0002859,69.9998,142.9247,259.2003,100.8834,8.2865e-05,8.96e-06,0.0,0 STARLINK-3090,1 49132U 21082C   23082.54735455  .00000896  00000-0  82865-4 0  9991,2 49132  69.9998 142.9247 0002859 259.2003 100.8834 14.98333666 83885,6950.182,96.107,574.034,570.059,0.0
49132.0,STARLINK-3090,PAYLOAD,2023-03-23 21:08:52,14.98326168,0.0002738,70.0001,142.0844,257.0167,103.0686,0.00016448,1.87e-05,0.0,0 STARLINK-3090,1 49132U 21082C   23082.88115779  .00001870  00000-0  16448-3 0  9995,2 49132  70.0001 142.0844 0002738 257.0167 103.0686 14.98326168 83935,6950.205,96.107,573.973,570.167,0.0
49132.0,STARLINK-3090,PAYLOAD,2023-03-24 11:34:02,14.98348242,0.0003028,69.9993,140.5668,268.341,91.7402,0.00021543,2.48e-05,0.0,0 STARLINK-3090,1 49132U 21082C   23083.48197888  .00002480  00000-0  21543-3 0  9993,2 49132  69.9993 140.5668 0003028 268.3410  91.7402 14.98348242 84025,6950.136,96.106,574.106,569.897,0.0
49132.0,STARLINK-3090,PAYLOAD,2023-03-24 13:10:10,14.98352248,0.0002915,69.9999,140.3996,265.1458,94.9369,0.00023993,2.773e-05,0.0,0 STARLINK-3090,1 49132U 21082C   23083.54873520  .00002773  00000-0  23993-3 0  9990,2 49132  69.9999 140.3996 0002915 265.1458  94.9369 14.98352248 84033,6950.124,96.106,574.015,569.963,0.0
49132.0,STARLINK-3090,PAYLOAD,2023-03-25 05:11:34,14.98315785,0.0003138,70.0003,138.7177,273.8723,86.2077,-0.00017257,-2.151e-05,0.0,0 STARLINK-3090,1 49132U 21082C   23084.21636980 -.00002151  00000-0 -17257-3 0  9990,2 49132  70.0003 138.7177 0003138 273.8723  86.2077 14.98315785 84139,6950.237,96.108,574.283,569.921,0.0
49132.0,STARLINK-3090,PAYLOAD,2023-03-25 11:36:07,14.98301978,0.000299,70.0001,138.044,270.3081,89.7736,-0.00031879,-3.892e-05,0.0,0 STARLINK-3090,1 49132U 21082C   23084.48342460 -.00003892  00000-0 -31879-3 0  9995,2 49132  70.0001 138.0440 0002990 270.3081  89.7736 14.98301978 84170,6950.28,96.109,574.223,570.066,0.0
49132.0,STARLINK-3090,PAYLOAD,2023-03-25 13:12:16,14.98302167,0.0003051,69.9999,137.8755,270.9617,89.1192,-0.00031318,-3.825e-05,0.0,0 STARLINK-3090,1 49132U 21082C   23084.55018528 -.00003825  00000-0 -31318-3 0  9992,2 49132  69.9999 137.8755 0003051 270.9617  89.1192 14.98302167 84181,6950.279,96.109,574.264,570.023,0.0
49132.0,STARLINK-3090,PAYLOAD,2023-03-26 05:13:36,14.98317689,0.0003156,70.0003,136.1931,275.0742,85.0057,-0.00017316,-2.158e-05,0.0,0 STARLINK-3090,1 49132U 21082C   23085.21777970 -.00002158  00000-0 -17316-3 0  9999,2 49132  70.0003 136.1931 0003156 275.0742  85.0057 14.98317689 84280,6950.231,96.108,574.289,569.902,0.0
49132.0,STARLINK-3090,PAYLOAD,2023-03-26 13:14:16,14.9832122,0.0002656,70.0007,135.3512,259.3548,100.7312,-0.00018458,-2.294e-05,0.0,0 STARLINK-3090,1 49132U 21082C   23085.55157918 -.00002294  00000-0 -18458-3 0  9999,2 49132  70.0007 135.3512 0002656 259.3548 100.7312 14.98321220 84334,6950.22,96.108,573.931,570.239,0.0
49132.0,STARLINK-3090,PAYLOAD,2023-03-27 13:16:16,14.98323686,0.0003648,69.9984,132.8239,277.9652,82.1093,0.00044925,5.271e-05,0.0,0 STARLINK-3090,1 49132U 21082C   23086.55297041  .00005271  00000-0  44925-3 0  9996,2 49132  69.9984 132.8239 0003648 277.9652  82.1093 14.98323686 84480,6950.212,96.107,574.613,569.542,0.0
49132.0,STARLINK-3090,PAYLOAD,2023-03-27 19:40:49,14.98325236,0.0003219,69.9992,132.1516,273.8739,86.2052,0.00042155,4.94e-05,0.0,0 STARLINK-3090,1 49132U 21082C   23086.82001239  .00004940  00000-0  42155-3 0  9993,2 49132  69.9992 132.1516 0003219 273.8739  86.2052 14.98325236 84523,6950.208,96.107,574.31,569.835,0.0
49132.0,STARLINK-3090,PAYLOAD,2023-03-28 05:17:36,14.98341338,0.0003611,69.9983,131.1403,276.1098,83.9649,0.00029068,3.378e-05,0.0,0 STARLINK-3090,1 49132U 21082C   23087.22056451  .00003378  00000-0  29068-3 0  9996,2 49132  69.9983 131.1403 0003611 276.1098  83.9649 14.98341338 84580,6950.158,96.106,574.533,569.513,0.0
49132.0,STARLINK-3090,PAYLOAD,2023-03-28 13:18:16,14.9834872,0.0003511,69.9985,130.2988,275.7269,84.3489,0.00037508,4.387e-05,0.0,0 STARLINK-3090,1 49132U 21082C   23087.55435746  .00004387  00000-0  37508-3 0  9999,2 49132  69.9985 130.2988 0003511 275.7269  84.3489 14.98348720 84639,6950.135,96.106,574.44,569.56,0.0
49132.0,STARLINK-3090,PAYLOAD,2023-03-29 05:19:37,14.98343697,0.0003288,69.999,128.6154,274.9492,85.1292,5.381e-05,5.49e-06,0.0,0 STARLINK-3090,1 49132U 21082C   23088.22196134  .00000549  00000-0  53810-4 0  9990,2 49132  69.9990 128.6154 0003288 274.9492  85.1292 14.98343697 84731,6950.151,96.106,574.301,569.73,0.0
